start=new Date('2022-08-04T00:00:00.000Z').valueOf();
sats=[{"SITE":"AFWTR","NORAD_CAT_ID":"50167","MEAN_ELEMENT_THEORY":"SGP4","ELEMENT_SET_NO":"999","FILE":"3528081","OBJECT_ID":"2021-125M","APOAPSIS":"541.123","MEAN_MOTION":"15.08844509","TIME_SYSTEM":"UTC","PERIOD":"95.437","SEMIMAJOR_AXIS":"6917.867","OBJECT_NAME":"STARLINK-3271","TLE_LINE2":"2 50167  53.2192  40.0298 0002012  74.5692 285.5523 15.08844509 37536","CENTER_NAME":"EARTH","PERIAPSIS":"538.340","RCS_SIZE":"LARGE","GP_ID":"209465871","OBJECT_TYPE":"PAYLOAD","CLASSIFICATION_TYPE":"U","TLE_LINE1":"1 50167U 21125M   22215.21540904  .00000207  00000-0  31140-4 0  9999","ECCENTRICITY":"0.00020120","REF_FRAME":"TEME","MEAN_MOTION_DOT":"0.00000207","EPHEMERIS_TYPE":"0","INCLINATION":"53.2192","ARG_OF_PERICENTER":"74.5692","EPOCH":"2022-08-03T05:10:11.341056","LAUNCH_DATE":"2021-12-18","COUNTRY_CODE":"US","MEAN_ANOMALY":"285.5523","REV_AT_EPOCH":"3753","RA_OF_ASC_NODE":"40.0298","MEAN_MOTION_DDOT":"0.0000000000000","BSTAR":"0.00003114000000","DECAY_DATE":null},{"OBJECT_NAME":"STARLINK-3296","PERIAPSIS":"538.559","CENTER_NAME":"EARTH","TLE_LINE2":"2 50168  53.2171  27.2255 0001707  60.6914 299.4248 15.08841902 35155","RCS_SIZE":"LARGE","GP_ID":"209500927","OBJECT_TYPE":"PAYLOAD","TLE_LINE1":"1 50168U 21125N   22215.83824940  .00000560  00000-0  53271-4 0  9994","CLASSIFICATION_TYPE":"U","SITE":"AFWTR","NORAD_CAT_ID":"50168","MEAN_ELEMENT_THEORY":"SGP4","ELEMENT_SET_NO":"999","FILE":"3528557","OBJECT_ID":"2021-125N","TIME_SYSTEM":"UTC","APOAPSIS":"540.920","MEAN_MOTION":"15.08841902","PERIOD":"95.437","SEMIMAJOR_AXIS":"6917.875","COUNTRY_CODE":"US","MEAN_ANOMALY":"299.4248","RA_OF_ASC_NODE":"27.2255","REV_AT_EPOCH":"3515","BSTAR":"0.00005327100000","DECAY_DATE":null,"MEAN_MOTION_DDOT":"0.0000000000000","ECCENTRICITY":"0.00017070","MEAN_MOTION_DOT":"0.00000560","REF_FRAME":"TEME","EPHEMERIS_TYPE":"0","INCLINATION":"53.2171","ARG_OF_PERICENTER":"60.6914","EPOCH":"2022-08-03T20:07:04.748160","LAUNCH_DATE":"2021-12-18"},{"OBJECT_NAME":"STARLINK-3301","PERIAPSIS":"538.456","CENTER_NAME":"EARTH","TLE_LINE2":"2 50169  53.2179  28.2688 0001878  62.3934 297.7249 15.08836919 35137","RCS_SIZE":"LARGE","GP_ID":"209500935","OBJECT_TYPE":"PAYLOAD","TLE_LINE1":"1 50169U 21125P   22215.61009875  .00000336  00000-0  39187-4 0  9994","CLASSIFICATION_TYPE":"U","SITE":"AFWTR","NORAD_CAT_ID":"50169","MEAN_ELEMENT_THEORY":"SGP4","FILE":"3528557","OBJECT_ID":"2021-125P","ELEMENT_SET_NO":"999","APOAPSIS":"541.054","MEAN_MOTION":"15.08836919","TIME_SYSTEM":"UTC","PERIOD":"95.438","SEMIMAJOR_AXIS":"6917.890","COUNTRY_CODE":"US","MEAN_ANOMALY":"297.7249","REV_AT_EPOCH":"3513","RA_OF_ASC_NODE":"28.2688","BSTAR":"0.00003918700000","DECAY_DATE":null,"MEAN_MOTION_DDOT":"0.0000000000000","ECCENTRICITY":"0.00018780","MEAN_MOTION_DOT":"0.00000336","REF_FRAME":"TEME","EPHEMERIS_TYPE":"0","INCLINATION":"53.2179","ARG_OF_PERICENTER":"62.3934","EPOCH":"2022-08-03T14:38:32.532000","LAUNCH_DATE":"2021-12-18"},{"APOAPSIS":"540.800","MEAN_MOTION":"15.08830768","TIME_SYSTEM":"UTC","OBJECT_ID":"2021-125Q","FILE":"3528508","ELEMENT_SET_NO":"999","MEAN_ELEMENT_THEORY":"SGP4","SITE":"AFWTR","NORAD_CAT_ID":"50170","SEMIMAJOR_AXIS":"6917.909","PERIOD":"95.438","RCS_SIZE":"LARGE","TLE_LINE2":"2 50170  53.2185  27.5533 0001484  57.2307 302.8828 15.08830768 37754","PERIAPSIS":"538.747","CENTER_NAME":"EARTH","OBJECT_NAME":"STARLINK-3245","CLASSIFICATION_TYPE":"U","TLE_LINE1":"1 50170U 21125Q   22215.76465763 -.00000526  00000-0 -14976-4 0  9996","OBJECT_TYPE":"PAYLOAD","GP_ID":"209500277","EPHEMERIS_TYPE":"0","INCLINATION":"53.2185","REF_FRAME":"TEME","MEAN_MOTION_DOT":"-0.00000526","ECCENTRICITY":"0.00014840","LAUNCH_DATE":"2021-12-18","EPOCH":"2022-08-03T18:21:06.419232","ARG_OF_PERICENTER":"57.2307","MEAN_ANOMALY":"302.8828","COUNTRY_CODE":"US","MEAN_MOTION_DDOT":"0.0000000000000","BSTAR":"-0.00001497600000","DECAY_DATE":null,"REV_AT_EPOCH":"3775","RA_OF_ASC_NODE":"27.5533"},{"FILE":"3528364","ELEMENT_SET_NO":"999","OBJECT_ID":"2021-125R","TIME_SYSTEM":"UTC","APOAPSIS":"540.834","MEAN_MOTION":"15.08848755","SITE":"AFWTR","NORAD_CAT_ID":"50171","MEAN_ELEMENT_THEORY":"SGP4","SEMIMAJOR_AXIS":"6917.854","PERIOD":"95.437","RCS_SIZE":"LARGE","OBJECT_NAME":"STARLINK-3286","TLE_LINE2":"2 50171  53.2192  28.6803 0001612  56.3827 303.7319 15.08848755 38206","PERIAPSIS":"538.603","CENTER_NAME":"EARTH","OBJECT_TYPE":"PAYLOAD","CLASSIFICATION_TYPE":"U","TLE_LINE1":"1 50171U 21125R   22215.51440329  .00002160  00000-0  15375-3 0  9998","GP_ID":"209495646","REF_FRAME":"TEME","MEAN_MOTION_DOT":"0.00002160","EPHEMERIS_TYPE":"0","INCLINATION":"53.2192","ECCENTRICITY":"0.00016120","EPOCH":"2022-08-03T12:20:44.444256","LAUNCH_DATE":"2021-12-18","ARG_OF_PERICENTER":"56.3827","COUNTRY_CODE":"US","MEAN_ANOMALY":"303.7319","MEAN_MOTION_DDOT":"0.0000000000000","BSTAR":"0.00015375000000","DECAY_DATE":null,"REV_AT_EPOCH":"3820","RA_OF_ASC_NODE":"28.6803"},{"SEMIMAJOR_AXIS":"6917.862","PERIOD":"95.437","APOAPSIS":"541.280","TIME_SYSTEM":"UTC","MEAN_MOTION":"15.08846043","FILE":"3528364","OBJECT_ID":"2021-125S","ELEMENT_SET_NO":"999","MEAN_ELEMENT_THEORY":"SGP4","NORAD_CAT_ID":"50172","SITE":"AFWTR","CLASSIFICATION_TYPE":"U","TLE_LINE1":"1 50172U 21125S   22215.49233036 -.00000179  00000-0  68588-5 0  9996","OBJECT_TYPE":"PAYLOAD","GP_ID":"209494947","RCS_SIZE":"LARGE","TLE_LINE2":"2 50172  53.2173  28.7969 0002245  71.7209 288.4028 15.08846043 38235","PERIAPSIS":"538.174","CENTER_NAME":"EARTH","OBJECT_NAME":"STARLINK-3287","LAUNCH_DATE":"2021-12-18","EPOCH":"2022-08-03T11:48:57.343104","ARG_OF_PERICENTER":"71.7209","EPHEMERIS_TYPE":"0","INCLINATION":"53.2173","REF_FRAME":"TEME","MEAN_MOTION_DOT":"-0.00000179","ECCENTRICITY":"0.00022450","MEAN_MOTION_DDOT":"0.0000000000000","BSTAR":"0.00000685880000","DECAY_DATE":null,"REV_AT_EPOCH":"3823","RA_OF_ASC_NODE":"28.7969","MEAN_ANOMALY":"288.4028","COUNTRY_CODE":"US"},{"COUNTRY_CODE":"US","MEAN_ANOMALY":"248.6664","MEAN_MOTION_DDOT":"0.0000000000000","DECAY_DATE":null,"BSTAR":"-0.00002077900000","RA_OF_ASC_NODE":"17.4589","REV_AT_EPOCH":"3530","REF_FRAME":"TEME","MEAN_MOTION_DOT":"-0.00000621","EPHEMERIS_TYPE":"0","INCLINATION":"53.2225","ECCENTRICITY":"0.00068900","EPOCH":"2022-08-03T18:50:18.408192","LAUNCH_DATE":"2021-12-18","ARG_OF_PERICENTER":"111.5063","RCS_SIZE":"LARGE","OBJECT_NAME":"STARLINK-3289","TLE_LINE2":"2 50173  53.2225  17.4589 0006890 111.5063 248.6664 15.08847540 35300","CENTER_NAME":"EARTH","PERIAPSIS":"534.956","OBJECT_TYPE":"PAYLOAD","CLASSIFICATION_TYPE":"U","TLE_LINE1":"1 50173U 21125T   22215.78493528 -.00000621  00000-0 -20779-4 0  9995","GP_ID":"209501437","ELEMENT_SET_NO":"999","FILE":"3528557","OBJECT_ID":"2021-125T","APOAPSIS":"544.489","MEAN_MOTION":"15.08847540","TIME_SYSTEM":"UTC","NORAD_CAT_ID":"50173","SITE":"AFWTR","MEAN_ELEMENT_THEORY":"SGP4","SEMIMAJOR_AXIS":"6917.857","PERIOD":"95.437"},{"LAUNCH_DATE":"2021-12-18","EPOCH":"2022-08-03T11:33:04.027968","ARG_OF_PERICENTER":"63.7968","EPHEMERIS_TYPE":"0","INCLINATION":"53.2182","REF_FRAME":"TEME","MEAN_MOTION_DOT":"0.00001768","ECCENTRICITY":"0.00016420","MEAN_MOTION_DDOT":"0.0000000000000","BSTAR":"0.00012916000000","DECAY_DATE":null,"RA_OF_ASC_NODE":"28.8461","REV_AT_EPOCH":"3824","MEAN_ANOMALY":"296.3193","COUNTRY_CODE":"US","PERIOD":"95.437","SEMIMAJOR_AXIS":"6917.868","MEAN_MOTION":"15.08843965","APOAPSIS":"540.869","TIME_SYSTEM":"UTC","OBJECT_ID":"2021-125U","FILE":"3528364","ELEMENT_SET_NO":"999","MEAN_ELEMENT_THEORY":"SGP4","SITE":"AFWTR","NORAD_CAT_ID":"50174","CLASSIFICATION_TYPE":"U","TLE_LINE1":"1 50174U 21125U   22215.48129662  .00001768  00000-0  12916-3 0  9992","OBJECT_TYPE":"PAYLOAD","GP_ID":"209495448","RCS_SIZE":"LARGE","TLE_LINE2":"2 50174  53.2182  28.8461 0001642  63.7968 296.3193 15.08843965 38240","CENTER_NAME":"EARTH","PERIAPSIS":"538.597","OBJECT_NAME":"STARLINK-3292"},{"ARG_OF_PERICENTER":"62.4364","LAUNCH_DATE":"2021-12-18","EPOCH":"2022-08-03T12:04:51.906720","ECCENTRICITY":"0.00015000","EPHEMERIS_TYPE":"0","INCLINATION":"53.2179","MEAN_MOTION_DOT":"0.00000182","REF_FRAME":"TEME","REV_AT_EPOCH":"3820","RA_OF_ASC_NODE":"28.7299","BSTAR":"0.00002955300000","DECAY_DATE":null,"MEAN_MOTION_DDOT":"0.0000000000000","MEAN_ANOMALY":"297.6781","COUNTRY_CODE":"US","SEMIMAJOR_AXIS":"6917.882","PERIOD":"95.438","MEAN_ELEMENT_THEORY":"SGP4","NORAD_CAT_ID":"50175","SITE":"AFWTR","APOAPSIS":"540.784","TIME_SYSTEM":"UTC","MEAN_MOTION":"15.08839634","OBJECT_ID":"2021-125V","FILE":"3528364","ELEMENT_SET_NO":"999","GP_ID":"209496147","TLE_LINE1":"1 50175U 21125V   22215.50337855  .00000182  00000-0  29553-4 0  9996","CLASSIFICATION_TYPE":"U","OBJECT_TYPE":"PAYLOAD","PERIAPSIS":"538.709","CENTER_NAME":"EARTH","TLE_LINE2":"2 50175  53.2179  28.7299 0001500  62.4364 297.6781 15.08839634 38205","OBJECT_NAME":"STARLINK-3291","RCS_SIZE":"LARGE"},{"GP_ID":"209494447","CLASSIFICATION_TYPE":"U","TLE_LINE1":"1 50176U 21125W   22215.41873363 -.00001510  00000-0 -76755-4 0  9990","OBJECT_TYPE":"PAYLOAD","TLE_LINE2":"2 50176  53.2180  29.1269 0001828  68.0126 292.1060 15.08841279 38232","PERIAPSIS":"538.477","CENTER_NAME":"EARTH","OBJECT_NAME":"STARLINK-3293","RCS_SIZE":"LARGE","PERIOD":"95.437","SEMIMAJOR_AXIS":"6917.876","MEAN_ELEMENT_THEORY":"SGP4","NORAD_CAT_ID":"50176","SITE":"AFWTR","APOAPSIS":"541.006","MEAN_MOTION":"15.08841279","TIME_SYSTEM":"UTC","FILE":"3528364","OBJECT_ID":"2021-125W","ELEMENT_SET_NO":"999","RA_OF_ASC_NODE":"29.1269","REV_AT_EPOCH":"3823","MEAN_MOTION_DDOT":"0.0000000000000","DECAY_DATE":null,"BSTAR":"-0.00007675500000","MEAN_ANOMALY":"292.1060","COUNTRY_CODE":"US","ARG_OF_PERICENTER":"68.0126","LAUNCH_DATE":"2021-12-18","EPOCH":"2022-08-03T10:02:58.585632","ECCENTRICITY":"0.00018280","EPHEMERIS_TYPE":"0","INCLINATION":"53.2180","REF_FRAME":"TEME","MEAN_MOTION_DOT":"-0.00001510"}];
